L-SAR 01A               
1 51284U 22007A   22050.42474528 -.00000115  00000+0 -65664-5 0  9996
2 51284  97.8091  59.4756 0001687  90.2366 269.9056 14.88419263  3635
CZ-4C R/B               
1 51285U 22007B   22050.06310330  .00003151  00000+0  13978-3 0  9997
2 51285  97.8455  60.2665 0122721 308.9926  50.0425 15.15853690  3640
CZ-4C DEB               
1 51286U 22007C   22041.98973314  .01050619  00000+0  15362+0 0  9993
2 51286  97.7903  50.4506 0110633 154.4635 206.2095 14.68505393  2348
ASCENT                  
1 51287U 21118E   22037.20605106 -.00000057  00000+0  00000+0 0  9991
2 51287   0.1323 113.8875 0002651 136.3445 187.7236  1.01234817   200
ELSA-D CLIENT           
1 51288U 21022AQ  22050.02964750  .00001842  00000+0  12634-3 0  9996
2 51288  97.5388 312.3803 0018521 178.1232 182.0068 15.07115488  3724
GASPACS                 
1 51439U 98067TB  22050.47246308  .00069877  00000+0  10826-2 0  9990
2 51439  51.6404 199.2046 0005078 155.0057 205.1180 15.53368012  3754
1998-067TC              
1 51440U 98067TC  22050.14290642  .00094163  00000+0  13977-2 0  9992
2 51440  51.6402 200.7543 0004316 156.0368 204.0825 15.54417464  3766
1998-067TD              
1 51441U 98067TD  22049.71185012  .00024098  00000+0  40720-3 0  9995
2 51441  51.6404 203.1242 0007338 159.9969 200.1309 15.51447779  3682
1998-067TE              
1 51442U 98067TE  22050.22482705  .00027368  00000+0  45815-3 0  9996
2 51442  51.6404 200.5494 0007443 168.8349 191.2807 15.51634563  3728
DAILI                   
1 51443U 98067TF  22049.95618842  .00056182  00000+0  88131-3 0  9992
2 51443  51.6405 201.7568 0007633 150.7464 209.3955 15.53100211  3640
CSG-2                   
1 51444U 22008A   22050.49811152 -.00000283  00000+0 -27709-4 0  9993
2 51444  97.8753 235.8952 0001751  81.7927 278.3508 14.83836478  2749
STARLINK-3167           
1 51460U 22010E   22049.60838712 -.00446498  00000+0 -24769-2 0  9999
2 51460  53.2161  98.7225 0001581  54.7632 305.3539 15.79983244  3598
STARLINK-3181           
1 51461U 22010F   22049.83334491 -.00878527  00000+0 -57236-2 0  9997
2 51461  53.2175  97.7497 0001194  57.0605  71.1867 15.77571680  3698
STARLINK-3166           
1 51462U 22010G   22049.83334491 -.00887146  00000+0 -57860-2 0  9998
2 51462  53.2177  97.7480 0001093  62.4618  66.4640 15.77571715  2914
STARLINK-3419           
1 51463U 22010H   22049.60799394 -.00420772  00000+0 -23242-2 0  9996
2 51463  53.2152  98.7182 0001339  47.4248 312.6888 15.80011877  3590
STARLINK-3189           
1 51464U 22010J   22049.83334491 -.00882830  00000+0 -57510-2 0  9997
2 51464  53.2176  97.7455 0001170  56.9551  73.0888 15.77585872  3645
STARLINK-3401           
1 51465U 22010K   22049.75002315 -.00879691  00000+0 -56892-2 0  9999
2 51465  53.2171  98.1597 0001292  40.7858 336.4248 15.77736966  3681
STARLINK-3178           
1 51467U 22010M   22049.60790010 -.00167743  00000+0 -91362-3 0  9991
2 51467  53.2154  98.7181 0001479  56.9096 303.2069 15.79630510  3659
STARLINK-3174           
1 51468U 22010N   22049.73474238 -.00277230  00000+0 -14998-2 0  9999
2 51468  53.2149  98.0871 0001448  39.7053 320.4075 15.80087944  3670
STARLINK-3182           
1 51469U 22010P   22049.83334491 -.00881538  00000+0 -57437-2 0  9994
2 51469  53.2176  97.7468 0001160  58.8125  70.6580 15.77578181  3693
STARLINK-3165           
1 51471U 22010R   22050.48391857 -.00436508  00000+0 -16093-2 0  9995
2 51471  53.2122  93.4786 0001827  30.4028 329.7104 15.88468390  3806
STARLINK-3415           
1 51472U 22010S   22049.73469555 -.00429545  00000+0 -23817-2 0  9998
2 51472  53.2153  98.0869 0002393  43.9717 316.1496 15.79944826  3679
FALCON 9 DEB            
1 51473U 22010T   22046.38177699  .08304585  12261-4  27585-3 0  9998
2 51473  53.2038 113.3190 0015391 224.2750 135.7069 16.43126440  2679
FALCON 9 DEB            
1 51474U 22010U   22046.63668016  .06080672  12087-4  45752-3 0  9993
2 51474  53.1941 112.0563 0021098 208.7175 151.2713 16.38694128  2712
FALCON 9 DEB            
1 51476U 22010W   22046.25149440  .11768701  12386-4  16053-3 0  9994
2 51476  53.2017 113.9238 0014385 220.7781 139.2196 16.47959322  2650
LIGHT-1                 
1 51509U 98067TG  22049.78248473  .00020632  00000+0  35368-3 0  9990
2 51509  51.6474 202.8396 0009113 152.1346 208.0105 15.51131095  2431
GT-1                    
1 51510U 98067TH  22049.90780483  .00058549  00000+0  95288-3 0  9993
2 51510  51.6433 202.1812 0007636 152.1596 207.9797 15.52059800  2472
COSMOS 2553             
1 51511U 22011A   22049.86105818 -.00000069  00000+0 -93049-3 0  9997
2 51511  67.0900 208.4676 0003953 266.8597  93.1893 11.32883089  1549
ONEWEB-0410             
1 51622U 22012A   22050.25001157  .00066426  00000+0  22001-2 0  9993
2 51622  87.4005 358.7204 0016046 215.5212 109.0976 15.30915810  2586
ONEWEB-0411             
1 51623U 22012B   22050.25001157  .00070971  00000+0  25628-2 0  9992
2 51623  87.4026 358.7331 0013992 220.3194  19.8362 15.28111750  2564
ONEWEB-0415             
1 51624U 22012C   22050.50002315 -.00058504  00000+0 -21257-2 0  9992
2 51624  87.4023 358.6474 0015470 219.2142 324.3563 15.28483539  2601
ONEWEB-0416             
1 51625U 22012D   22050.50002315 -.00056112  00000+0 -19327-2 0  9991
2 51625  87.4028 358.6395 0013303 218.4040  18.6262 15.30248255  2617
ONEWEB-0422             
1 51626U 22012E   22050.50002315 -.00054559  00000+0 -18484-2 0  9998
2 51626  87.4021 358.6368 0015628 217.7409  36.3990 15.30742358  2612
ONEWEB-0423             
1 51627U 22012F   22050.50002315 -.00054666  00000+0 -18309-2 0  9994
2 51627  87.4035 358.6370 0016340 212.5810  52.7196 15.31101307  2616
ONEWEB-0425             
1 51628U 22012G   22050.50002315 -.00057583  00000+0 -20472-2 0  9990
2 51628  87.4020 358.6459 0015850 208.9119 356.8630 15.29185623  2616
ONEWEB-0428             
1 51629U 22012H   22050.50002315 -.00059287  00000+0 -21899-2 0  9998
2 51629  87.4028 358.6497 0013262 219.0064 309.8436 15.27978991  2601
ONEWEB-0431             
1 51630U 22012J   22050.50002315 -.00057759  00000+0 -20623-2 0  9996
2 51630  87.4041 358.6451 0016185 210.5387 351.0704 15.29040336  2612
ONEWEB-0434             
1 51631U 22012K   22050.16667824 -.00001632  00000+0 -58804-4 0  9994
2 51631  87.4033 358.7608 0015132 207.6725 329.2646 15.29313229  2563
ONEWEB-0435             
1 51632U 22012L   22050.50002315 -.00058427  00000+0 -21184-2 0  9994
2 51632  87.4053 358.6511 0015830 218.4270 327.8732 15.28547374  2602
ONEWEB-0436             
1 51633U 22012M   22050.50002315 -.00052957  00000+0 -17436-2 0  9992
2 51633  87.4032 358.6327 0015076 203.8718  79.0209 15.31666076  2624
ONEWEB-0438             
1 51634U 22012N   22050.50002315 -.00056347  00000+0 -19520-2 0  9996
2 51634  87.4053 358.6423 0013078 214.1214  18.8791 15.30065057  2618
ONEWEB-0439             
1 51635U 22012P   22050.50002315 -.00057226  00000+0 -20180-2 0  9998
2 51635  87.4014 358.6401 0014646 206.1402   8.6181 15.29468511  2614
ONEWEB-0442             
1 51636U 22012Q   22050.16667824  .00041794  00000+0  13441-2 0  9996
2 51636  87.4015 358.7449 0013103 202.9605  54.9340 15.31996106  2570
ONEWEB-0443             
1 51637U 22012R   22050.16667824  .00042057  00000+0  13723-2 0  9993
2 51637  87.4021 358.7508 0015361 207.1201  35.7789 15.31498239  2579
ONEWEB-0444             
1 51638U 22012S   22050.50002315 -.00055972  00000+0 -19246-2 0  9998
2 51638  87.4034 358.6426 0013579 219.2347  21.1450 15.30298935  2615
ONEWEB-0445             
1 51639U 22012T   22050.50002315 -.00057240  00000+0 -20043-2 0  9996
2 51639  87.4026 358.6414 0013629 207.2596  15.0433 15.29713114  2615
ONEWEB-0446             
1 51640U 22012U   22050.16667824  .00042317  00000+0  14426-2 0  9997
2 51640  87.4025 358.7558 0012696 217.8436 343.9180 15.30118849  2561
ONEWEB-0448             
1 51641U 22012V   22050.50002315 -.00058045  00000+0 -20878-2 0  9999
2 51641  87.4039 358.6480 0016386 215.2129 338.7823 15.28797782  2608
ONEWEB-0449             
1 51642U 22012W   22050.50002315 -.00057917  00000+0 -20752-2 0  9998
2 51642  87.4027 358.6466 0016487 212.0423 345.9574 15.28921570  2612
ONEWEB-0451             
1 51643U 22012X   22050.50002315 -.00054326  00000+0 -18080-2 0  9991
2 51643  87.4027 358.6352 0016074 208.4951  63.1587 15.31308909  2627
ONEWEB-0452             
1 51644U 22012Y   22050.50002315 -.00052430  00000+0 -17004-2 0  9991
2 51644  87.4049 358.6347 0012600 202.2021  96.8987 15.32183820  2628
ONEWEB-0455             
1 51645U 22012Z   22050.50002315 -.00058737  00000+0 -21437-2 0  9993
2 51645  87.4030 358.6496 0014830 220.2905 319.8928 15.28348568  2600
ONEWEB-0456             
1 51646U 22012AA  22050.16667824  .00042325  00000+0  14311-2 0  9995
2 51646  87.4024 358.7525 0014144 221.3242 347.7268 15.30365055  2567
ONEWEB-0457             
1 51647U 22012AB  22050.25001157  .00067672  00000+0  23182-2 0  9995
2 51647  87.4012 358.7269 0012962 213.0522  79.7429 15.29861600  2583
ONEWEB-0458             
1 51648U 22012AC  22050.50002315 -.00057434  00000+0 -20356-2 0  9998
2 51648  87.4035 358.6445 0015057 205.9650   3.0855 15.29298168  2614
ONEWEB-0461             
1 51649U 22012AD  22049.83334491  .00033176  00000+0  11180-2 0  9996
2 51649  87.4029 358.8740 0014613 222.4237 314.7605 15.30496607  1940
ONEWEB-0463             
1 51650U 22012AE  22050.50002315 -.00054062  00000+0 -17927-2 0  9995
2 51650  87.4039 358.6331 0015697 207.0015  68.5836 15.31431205  2623
ONEWEB-0464             
1 51651U 22012AF  22050.16667824  .00042405  00000+0  14617-2 0  9999
2 51651  87.4027 358.7566 0012963 211.3546 339.5382 15.29755359  2568
ONEWEB-0468             
1 51652U 22012AG  22050.50002315 -.00058223  00000+0 -21019-2 0  9997
2 51652  87.4009 358.6445 0016131 216.6872 333.7301 15.28683154  2609
ONEWEB-0473             
1 51653U 22012AH  22050.50002315 -.00057005  00000+0 -20035-2 0  9992
2 51653  87.4047 358.6466 0014143 206.6773  11.6324 15.29583697  2615
ONEWEB-0474             
1 51654U 22012AJ  22050.50002315 -.00059030  00000+0 -21712-2 0  9996
2 51654  87.4031 358.6524 0013627 221.2303 311.9077 15.28111701  2604
ONEWEB-0475             
1 51655U 22012AK  22050.50002315 -.00055133  00000+0 -18605-2 0  9994
2 51655  87.4052 358.6400 0015860 215.8999  42.1756 15.30868299  2614
EOS-4                   
1 51656U 22013A   22050.51184303  .00001730  00000+0  10254-3 0  9990
2 51656  97.5518  59.5635 0010840 228.1761 283.0962 15.12682870   823
INSPIRESAT-1            
1 51657U 22013B   22050.08604058  .00002417  00000+0  14044-3 0  9991
2 51657  97.5577  59.1531 0010127 236.1195 123.9062 15.13018027   762
INS-2TD                 
1 51658U 22013C   22050.54839957  .00003650  00000+0  20922-3 0  9993
2 51658  97.5584  59.6137 0009500 237.0363 122.9955 15.13188150   831
PSLV R/B                
1 51659U 22013D   22050.20954570  .00003049  00000+0  16230-3 0  9995
2 51659  97.5721  59.3425 0032588 321.3549  38.5337 15.15563263   781
PROGRESS-MS 19          
1 51660U 22014A   22049.55564002  .00008748  00000+0  16196-3 0  9993
2 51660  51.6432 204.0803 0005756 141.5565 335.6601 15.49838759326787
